*******************************************************************************
Ephemeris / WWW_USER Mon Jul 15 19:00:34 2024 Pasadena, USA      / Horizons    
*******************************************************************************
Target body name: (2018 RP1)                      {source: JPL#4}
Center body name: Earth (399)                     {source: DE441}
Center-site name: Gemini South Obs., Cerro Pachon
*******************************************************************************
Start time      : A.D. 2018-Nov-14 23:25:00.0000 UT      
Stop  time      : A.D. 2018-Nov-15 09:29:00.0000 UT      
Step-size       : 1 minutes
*******************************************************************************
Target pole/equ : undefined
Target radii    : undefined                                                    
Center geodetic : 289.2634, -30.2406227, 2.71233  {E-lon(deg),Lat(deg),Alt(km)}
Center cylindric: 289.2634,5517.21435,-3194.81213 {E-lon(deg),Dxy(km),Dz(km)}
Center pole/equ : ITRF93                          {East-longitude positive}
Center radii    : 6378.137, 6378.137, 6356.752 km {Equator_a, b, pole_c}       
Target primary  : Sun
Vis. interferer : MOON (R_eq= 1737.400) km        {source: DE441}
Rel. light bend : Sun                             {source: DE441}
Rel. lght bnd GM: 1.3271E+11 km^3/s^2                                          
Small-body perts: Yes                             {source: SB441-N16}
Atmos refraction: NO (AIRLESS)
RA format       : HMS
Time format     : CAL 
Calendar mode   : Mixed Julian/Gregorian
RTS-only print  : NO       
EOP file        : eop.240715.p241008                                           
EOP coverage    : DATA-BASED 1962-JAN-20 TO 2024-JUL-15. PREDICTS-> 2024-OCT-07
Units conversion: 1 au= 149597870.700 km, c= 299792.458 km/s, 1 day= 86400.0 s 
Table cut-offs 1: Elevation (-90.0deg=NO ),Airmass (>38.000=NO), Daylight (YES)
Table cut-offs 2: Solar elongation (  0.0,180.0=NO ),Local Hour Angle( 0.0=NO )
Table cut-offs 3: RA/DEC angular rate (     0.0=NO )                           
*******************************************************************************
Initial IAU76/J2000 heliocentric ecliptic osculating elements (au, days, deg.):
  EPOCH=  2458376.5 ! 2018-Sep-15.00 (TDB)         Residual RMS= .12525        
   EC= .3382936082205208   QR= .9576766169446216   TP= 2458412.3293739939      
   OM= 161.903422202901    W=  234.5704247756858   IN= 9.466091569921099       
  Equivalent ICRF heliocentric cartesian coordinates (au, au/d):
   X= 1.017940821946709E+00  Y=-7.278189102440286E-02  Z=-7.249995171787897E-02
  VX=-1.754817228708964E-03 VY= 1.862872143473751E-02 VZ= 4.887370356508847E-03
Asteroid physical parameters (km, seconds, rotational period in hours):        
   GM= n.a.                RAD= n.a.               ROTPER= n.a.                
   H= 24.3                 G= .150                 B-V= n.a.                   
                           ALBEDO= n.a.            STYP= n.a.                  
*******************************************************************************
 Date__(UT)__HR:MN     R.A._________(ICRF)_________DEC
******************************************************
$$SOE
 2018-Nov-14 23:25 Cm  09 26 41.827232 -21 01 42.14629
 2018-Nov-14 23:26 Cm  09 26 41.902534 -21 01 42.08370
 2018-Nov-14 23:27 Cm  09 26 41.977827 -21 01 42.02128
 2018-Nov-14 23:28 Cm  09 26 42.053112 -21 01 41.95903
 2018-Nov-14 23:29 Cm  09 26 42.128387 -21 01 41.89696
 2018-Nov-14 23:30 Cm  09 26 42.203652 -21 01 41.83507
 2018-Nov-14 23:31 Cm  09 26 42.278908 -21 01 41.77335
 2018-Nov-14 23:32 Cm  09 26 42.354155 -21 01 41.71180
 2018-Nov-14 23:33 Cm  09 26 42.429391 -21 01 41.65043
 2018-Nov-14 23:34 Cm  09 26 42.504617 -21 01 41.58923
 2018-Nov-14 23:35 Cm  09 26 42.579834 -21 01 41.52820
 2018-Nov-14 23:36 Cm  09 26 42.655040 -21 01 41.46735
 2018-Nov-14 23:37 Cm  09 26 42.730235 -21 01 41.40667
 2018-Nov-14 23:38 Cm  09 26 42.805420 -21 01 41.34616
 2018-Nov-14 23:39 Cm  09 26 42.880594 -21 01 41.28582
 2018-Nov-14 23:40 Cm  09 26 42.955757 -21 01 41.22566
 2018-Nov-14 23:41 Cm  09 26 43.030909 -21 01 41.16567
 2018-Nov-14 23:42 Cm  09 26 43.106050 -21 01 41.10585
 2018-Nov-14 23:43 Nm  09 26 43.181180 -21 01 41.04620
 2018-Nov-14 23:44 Nm  09 26 43.256298 -21 01 40.98672
 2018-Nov-14 23:45 Nm  09 26 43.331404 -21 01 40.92741
 2018-Nov-14 23:46 Nm  09 26 43.406499 -21 01 40.86828
 2018-Nov-14 23:47 Nm  09 26 43.481581 -21 01 40.80931
 2018-Nov-14 23:48 Nm  09 26 43.556652 -21 01 40.75052
 2018-Nov-14 23:49 Nm  09 26 43.631710 -21 01 40.69190
 2018-Nov-14 23:50 Nm  09 26 43.706756 -21 01 40.63344
 2018-Nov-14 23:51 Nm  09 26 43.781789 -21 01 40.57516
 2018-Nov-14 23:52 Nm  09 26 43.856809 -21 01 40.51704
 2018-Nov-14 23:53 Nm  09 26 43.931817 -21 01 40.45909
 2018-Nov-14 23:54 Nm  09 26 44.006812 -21 01 40.40132
 2018-Nov-14 23:55 Nm  09 26 44.081793 -21 01 40.34371
 2018-Nov-14 23:56 Nm  09 26 44.156761 -21 01 40.28627
 2018-Nov-14 23:57 Nm  09 26 44.231716 -21 01 40.22899
 2018-Nov-14 23:58 Nm  09 26 44.306657 -21 01 40.17189
 2018-Nov-14 23:59 Nm  09 26 44.381585 -21 01 40.11495
 2018-Nov-15 00:00 Nm  09 26 44.456498 -21 01 40.05818
 2018-Nov-15 00:01 Nm  09 26 44.531398 -21 01 40.00158
 2018-Nov-15 00:02 Nm  09 26 44.606283 -21 01 39.94514
 2018-Nov-15 00:03 Nm  09 26 44.681154 -21 01 39.88887
 2018-Nov-15 00:04 Nm  09 26 44.756011 -21 01 39.83276
 2018-Nov-15 00:05 Nm  09 26 44.830853 -21 01 39.77682
 2018-Nov-15 00:06 Nm  09 26 44.905680 -21 01 39.72105
 2018-Nov-15 00:07 Nm  09 26 44.980492 -21 01 39.66544
 2018-Nov-15 00:08 Nm  09 26 45.055290 -21 01 39.61000
 2018-Nov-15 00:09 Nm  09 26 45.130072 -21 01 39.55472
 2018-Nov-15 00:10 Nm  09 26 45.204838 -21 01 39.49960
 2018-Nov-15 00:11 Nm  09 26 45.279590 -21 01 39.44465
 2018-Nov-15 00:12 Nm  09 26 45.354325 -21 01 39.38986
 2018-Nov-15 00:13 Nm  09 26 45.429045 -21 01 39.33524
 2018-Nov-15 00:14 Am  09 26 45.503750 -21 01 39.28077
 2018-Nov-15 00:15 Am  09 26 45.578438 -21 01 39.22647
 2018-Nov-15 00:16 Am  09 26 45.653109 -21 01 39.17234
 2018-Nov-15 00:17 Am  09 26 45.727765 -21 01 39.11836
 2018-Nov-15 00:18 Am  09 26 45.802404 -21 01 39.06455
 2018-Nov-15 00:19 Am  09 26 45.877027 -21 01 39.01089
 2018-Nov-15 00:20 Am  09 26 45.951632 -21 01 38.95740
 2018-Nov-15 00:21 Am  09 26 46.026221 -21 01 38.90407
 2018-Nov-15 00:22 Am  09 26 46.100793 -21 01 38.85090
 2018-Nov-15 00:23 Am  09 26 46.175348 -21 01 38.79789
 2018-Nov-15 00:24 Am  09 26 46.249885 -21 01 38.74503
 2018-Nov-15 00:25 Am  09 26 46.324405 -21 01 38.69234
 2018-Nov-15 00:26 Am  09 26 46.398907 -21 01 38.63980
 2018-Nov-15 00:27 Am  09 26 46.473392 -21 01 38.58743
 2018-Nov-15 00:28 Am  09 26 46.547859 -21 01 38.53521
 2018-Nov-15 00:29 Am  09 26 46.622308 -21 01 38.48315
 2018-Nov-15 00:30 Am  09 26 46.696738 -21 01 38.43124
 2018-Nov-15 00:31 Am  09 26 46.771151 -21 01 38.37949
 2018-Nov-15 00:32 Am  09 26 46.845545 -21 01 38.32790
 2018-Nov-15 00:33 Am  09 26 46.919920 -21 01 38.27647
 2018-Nov-15 00:34 Am  09 26 46.994277 -21 01 38.22519
 2018-Nov-15 00:35 Am  09 26 47.068615 -21 01 38.17407
 2018-Nov-15 00:36 Am  09 26 47.142934 -21 01 38.12310
 2018-Nov-15 00:37 Am  09 26 47.217234 -21 01 38.07228
 2018-Nov-15 00:38 Am  09 26 47.291515 -21 01 38.02162
 2018-Nov-15 00:39 Am  09 26 47.365776 -21 01 37.97111
 2018-Nov-15 00:40 Am  09 26 47.440018 -21 01 37.92076
 2018-Nov-15 00:41 Am  09 26 47.514241 -21 01 37.87056
 2018-Nov-15 00:42 Am  09 26 47.588443 -21 01 37.82051
 2018-Nov-15 00:43 Am  09 26 47.662626 -21 01 37.77061
 2018-Nov-15 00:44 Am  09 26 47.736789 -21 01 37.72087
 2018-Nov-15 00:45 Am  09 26 47.810931 -21 01 37.67127
 2018-Nov-15 00:46 Am  09 26 47.885054 -21 01 37.62183
 2018-Nov-15 00:47  m  09 26 47.959156 -21 01 37.57253
 2018-Nov-15 00:48  m  09 26 48.033237 -21 01 37.52339
 2018-Nov-15 00:49  m  09 26 48.107298 -21 01 37.47440
 2018-Nov-15 00:50  m  09 26 48.181338 -21 01 37.42555
 2018-Nov-15 00:51  m  09 26 48.255356 -21 01 37.37686
 2018-Nov-15 00:52  m  09 26 48.329354 -21 01 37.32831
 2018-Nov-15 00:53  m  09 26 48.403331 -21 01 37.27991
 2018-Nov-15 00:54  m  09 26 48.477287 -21 01 37.23165
 2018-Nov-15 00:55  m  09 26 48.551221 -21 01 37.18355
 2018-Nov-15 00:56  m  09 26 48.625133 -21 01 37.13559
 2018-Nov-15 00:57  m  09 26 48.699024 -21 01 37.08777
 2018-Nov-15 00:58  m  09 26 48.772893 -21 01 37.04010
 2018-Nov-15 00:59  m  09 26 48.846739 -21 01 36.99258
 2018-Nov-15 01:00  m  09 26 48.920564 -21 01 36.94520
 2018-Nov-15 01:01  m  09 26 48.994367 -21 01 36.89796
 2018-Nov-15 01:02  m  09 26 49.068147 -21 01 36.85087
 2018-Nov-15 01:03  m  09 26 49.141905 -21 01 36.80392
 2018-Nov-15 01:04  m  09 26 49.215641 -21 01 36.75711
 2018-Nov-15 01:05  m  09 26 49.289353 -21 01 36.71045
 2018-Nov-15 01:06  m  09 26 49.363043 -21 01 36.66392
 2018-Nov-15 01:07  m  09 26 49.436710 -21 01 36.61754
 2018-Nov-15 01:08  m  09 26 49.510353 -21 01 36.57130
 2018-Nov-15 01:09  m  09 26 49.583974 -21 01 36.52520
 2018-Nov-15 01:10  m  09 26 49.657571 -21 01 36.47924
 2018-Nov-15 01:11  m  09 26 49.731145 -21 01 36.43342
 2018-Nov-15 01:12  m  09 26 49.804695 -21 01 36.38773
 2018-Nov-15 01:13  m  09 26 49.878222 -21 01 36.34219
 2018-Nov-15 01:14  m  09 26 49.951725 -21 01 36.29678
 2018-Nov-15 01:15  m  09 26 50.025204 -21 01 36.25151
 2018-Nov-15 01:16  m  09 26 50.098658 -21 01 36.20637
 2018-Nov-15 01:17  m  09 26 50.172089 -21 01 36.16138
 2018-Nov-15 01:18  m  09 26 50.245496 -21 01 36.11651
 2018-Nov-15 01:19  m  09 26 50.318878 -21 01 36.07179
 2018-Nov-15 01:20  m  09 26 50.392235 -21 01 36.02719
 2018-Nov-15 01:21  m  09 26 50.465568 -21 01 35.98274
 2018-Nov-15 01:22  m  09 26 50.538876 -21 01 35.93841
 2018-Nov-15 01:23  m  09 26 50.612159 -21 01 35.89422
 2018-Nov-15 01:24  m  09 26 50.685418 -21 01 35.85016
 2018-Nov-15 01:25  m  09 26 50.758651 -21 01 35.80623
 2018-Nov-15 01:26  m  09 26 50.831859 -21 01 35.76244
 2018-Nov-15 01:27  m  09 26 50.905042 -21 01 35.71877
